{"fetched_at":"2026-07-06T08:46:43.220Z","source":"https://celestrak.org/NORAD/elements/gp.php?GROUP=spire&FORMAT=JSON","constellation":"spire","records":[{"OBJECT_NAME":"LEMUR-2-JOHNNYTRUONG","OBJECT_ID":"2024-043BA","EPOCH":"2026-07-04T23:16:07.290048","CLASSIFICATION_TYPE":"U","MEAN_MOTION":15.6190242,"ECCENTRICITY":0.0004533,"INCLINATION":97.5393,"RA_OF_ASC_NODE":338.7921,"ARG_OF_PERICENTER":123.542,"MEAN_ANOMALY":236.6271,"EPHEMERIS_TYPE":0,"NORAD_CAT_ID":59146,"ELEMENT_SET_NO":999,"REV_AT_EPOCH":13081,"BSTAR":0.00076476,"MEAN_MOTION_DOT":0.00066781,"MEAN_MOTION_DDOT":0},{"OBJECT_NAME":"LEMUR-2-TOMATOKECHUP","OBJECT_ID":"2024-149D","EPOCH":"2026-07-05T05:10:22.783872","CLASSIFICATION_TYPE":"U","MEAN_MOTION":15.36432698,"ECCENTRICITY":0.0002843,"INCLINATION":97.3792,"RA_OF_ASC_NODE":268.3123,"ARG_OF_PERICENTER":140.6819,"MEAN_ANOMALY":219.4632,"EPHEMERIS_TYPE":0,"NORAD_CAT_ID":60471,"ELEMENT_SET_NO":999,"REV_AT_EPOCH":10493,"BSTAR":0.00052481,"MEAN_MOTION_DOT":0.00018596,"MEAN_MOTION_DDOT":0},{"OBJECT_NAME":"LEMUR-2-STELLA","OBJECT_ID":"2024-149BT","EPOCH":"2026-07-05T05:09:35.797824","CLASSIFICATION_TYPE":"U","MEAN_MOTION":15.1222472,"ECCENTRICITY":0.0001312,"INCLINATION":97.673,"RA_OF_ASC_NODE":268.7532,"ARG_OF_PERICENTER":102.719,"MEAN_ANOMALY":257.4187,"EPHEMERIS_TYPE":0,"NORAD_CAT_ID":60533,"ELEMENT_SET_NO":999,"REV_AT_EPOCH":10322,"BSTAR":0.0011816,"MEAN_MOTION_DOT":0.00020389,"MEAN_MOTION_DDOT":0},{"OBJECT_NAME":"LEMUR-2-MARHISYAM","OBJECT_ID":"2024-149BW","EPOCH":"2026-07-05T04:50:54.806208","CLASSIFICATION_TYPE":"U","MEAN_MOTION":15.11636814,"ECCENTRICITY":0.0002987,"INCLINATION":97.6873,"RA_OF_ASC_NODE":269.207,"ARG_OF_PERICENTER":85.7568,"MEAN_ANOMALY":274.4003,"EPHEMERIS_TYPE":0,"NORAD_CAT_ID":60536,"ELEMENT_SET_NO":999,"REV_AT_EPOCH":10320,"BSTAR":0.0010722,"MEAN_MOTION_DOT":0.00018192,"MEAN_MOTION_DDOT":0},{"OBJECT_NAME":"LEMUR-2-AHMED-ASRAR","OBJECT_ID":"2024-149DN","EPOCH":"2026-07-05T05:14:44.556000","CLASSIFICATION_TYPE":"U","MEAN_MOTION":15.13151703,"ECCENTRICITY":0.0000339,"INCLINATION":97.6999,"RA_OF_ASC_NODE":271.3871,"ARG_OF_PERICENTER":289.1354,"MEAN_ANOMALY":70.9839,"EPHEMERIS_TYPE":0,"NORAD_CAT_ID":60576,"ELEMENT_SET_NO":999,"REV_AT_EPOCH":10329,"BSTAR":0.0012012,"MEAN_MOTION_DOT":0.00021275,"MEAN_MOTION_DDOT":0},{"OBJECT_NAME":"LEMUR-2-LLOYD","OBJECT_ID":"2024-149DP","EPOCH":"2026-07-05T04:57:25.786080","CLASSIFICATION_TYPE":"U","MEAN_MOTION":15.09618294,"ECCENTRICITY":0.0005181,"INCLINATION":97.674,"RA_OF_ASC_NODE":267.3488,"ARG_OF_PERICENTER":95.5676,"MEAN_ANOMALY":264.6143,"EPHEMERIS_TYPE":0,"NORAD_CAT_ID":60577,"ELEMENT_SET_NO":999,"REV_AT_EPOCH":10311,"BSTAR":0.0011392,"MEAN_MOTION_DOT":0.0001829,"MEAN_MOTION_DDOT":0},{"OBJECT_NAME":"LEMUR-2-SQUIRRELCOMM","OBJECT_ID":"2024-149DQ","EPOCH":"2026-07-05T04:19:20.729856","CLASSIFICATION_TYPE":"U","MEAN_MOTION":15.07368905,"ECCENTRICITY":0.0005002,"INCLINATION":97.67,"RA_OF_ASC_NODE":267.0364,"ARG_OF_PERICENTER":3.1897,"MEAN_ANOMALY":356.9362,"EPHEMERIS_TYPE":0,"NORAD_CAT_ID":60578,"ELEMENT_SET_NO":999,"REV_AT_EPOCH":10311,"BSTAR":0.00075981,"MEAN_MOTION_DOT":0.00011441,"MEAN_MOTION_DDOT":0},{"OBJECT_NAME":"LEMUR-2-SIERRINI","OBJECT_ID":"2024-149DR","EPOCH":"2026-07-05T03:54:35.900928","CLASSIFICATION_TYPE":"U","MEAN_MOTION":15.11361742,"ECCENTRICITY":0.0006546,"INCLINATION":97.6839,"RA_OF_ASC_NODE":268.8385,"ARG_OF_PERICENTER":116.1139,"MEAN_ANOMALY":244.0765,"EPHEMERIS_TYPE":0,"NORAD_CAT_ID":60579,"ELEMENT_SET_NO":999,"REV_AT_EPOCH":10317,"BSTAR":0.0012296,"MEAN_MOTION_DOT":0.00020729,"MEAN_MOTION_DDOT":0},{"OBJECT_NAME":"LEMUR-2-WILSON","OBJECT_ID":"2025-009CP","EPOCH":"2026-07-05T03:56:06.474048","CLASSIFICATION_TYPE":"U","MEAN_MOTION":14.95249438,"ECCENTRICITY":0.0002728,"INCLINATION":97.7019,"RA_OF_ASC_NODE":264.3134,"ARG_OF_PERICENTER":10.9228,"MEAN_ANOMALY":349.2051,"EPHEMERIS_TYPE":0,"NORAD_CAT_ID":62694,"ELEMENT_SET_NO":999,"REV_AT_EPOCH":8004,"BSTAR":0.00038521,"MEAN_MOTION_DOT":0.00004183,"MEAN_MOTION_DDOT":0},{"OBJECT_NAME":"LEMUR-2-ARIANNA","OBJECT_ID":"2025-009CU","EPOCH":"2026-07-05T04:54:13.432896","CLASSIFICATION_TYPE":"U","MEAN_MOTION":15.02758104,"ECCENTRICITY":0.0004007,"INCLINATION":97.6871,"RA_OF_ASC_NODE":267.4455,"ARG_OF_PERICENTER":79.235,"MEAN_ANOMALY":280.9326,"EPHEMERIS_TYPE":0,"NORAD_CAT_ID":62699,"ELEMENT_SET_NO":999,"REV_AT_EPOCH":8026,"BSTAR":0.0010289,"MEAN_MOTION_DOT":0.00013715,"MEAN_MOTION_DDOT":0},{"OBJECT_NAME":"LEMUR-2-ALISIA","OBJECT_ID":"2025-009DB","EPOCH":"2026-07-05T04:17:29.393952","CLASSIFICATION_TYPE":"U","MEAN_MOTION":15.03062515,"ECCENTRICITY":0.0003294,"INCLINATION":97.6947,"RA_OF_ASC_NODE":268.2261,"ARG_OF_PERICENTER":161.8369,"MEAN_ANOMALY":198.2974,"EPHEMERIS_TYPE":0,"NORAD_CAT_ID":62706,"ELEMENT_SET_NO":999,"REV_AT_EPOCH":10286,"BSTAR":0.0011618,"MEAN_MOTION_DOT":0.00015623,"MEAN_MOTION_DDOT":0},{"OBJECT_NAME":"LEMUR-2-ROUNDTRIPPER","OBJECT_ID":"2025-009DG","EPOCH":"2026-07-05T04:35:02.836320","CLASSIFICATION_TYPE":"U","MEAN_MOTION":15.04109103,"ECCENTRICITY":0.0004579,"INCLINATION":97.7221,"RA_OF_ASC_NODE":268.8463,"ARG_OF_PERICENTER":87.8506,"MEAN_ANOMALY":272.3244,"EPHEMERIS_TYPE":0,"NORAD_CAT_ID":62711,"ELEMENT_SET_NO":999,"REV_AT_EPOCH":8033,"BSTAR":0.0012174,"MEAN_MOTION_DOT":0.0001684,"MEAN_MOTION_DDOT":0}]}
